[{"OBJECT_NAME":"MCUBED-2","OBJECT_ID":"2013-072L","EPOCH":"2026-03-09T22:49:27.284736","MEAN_MOTION":15.59782731,"ECCENTRICITY":0.0052286,"INCLINATION":120.4818,"RA_OF_ASC_NODE":108.7467,"ARG_OF_PERICENTER":309.4194,"MEAN_ANOMALY":50.2277,"EPHEMERIS_TYPE":0,"CLASSIFICATION_TYPE":"U","NORAD_CAT_ID":39472,"ELEMENT_SET_NO":999,"REV_AT_EPOCH":10128,"BSTAR":0.0011197913,"MEAN_MOTION_DOT":0.00097876,"MEAN_MOTION_DDOT":0},{"OBJECT_NAME":"STARLINK-1433","OBJECT_ID":"2020-035BG","EPOCH":"2026-03-09T22:30:41.376096","MEAN_MOTION":15.54765909,"ECCENTRICITY":0.0007594,"INCLINATION":53.0512,"RA_OF_ASC_NODE":19.8564,"ARG_OF_PERICENTER":101.9471,"MEAN_ANOMALY":258.2391,"EPHEMERIS_TYPE":0,"CLASSIFICATION_TYPE":"U","NORAD_CAT_ID":45711,"ELEMENT_SET_NO":999,"REV_AT_EPOCH":31940,"BSTAR":0.00092423501,"MEAN_MOTION_DOT":0.00062622,"MEAN_MOTION_DDOT":0}]
